start=new Date('2021-12-19T00:00:00.000Z').valueOf();
sats=[{"FILE":"3243681","OBJECT_ID":"2019-074F","BSTAR":"-0.00002072000000","NORAD_CAT_ID":"44718","RA_OF_ASC_NODE":"269.7103","MEAN_ANOMALY":"297.8153","OBJECT_NAME":"STARLINK-1012","TLE_LINE1":"1 44718U 19074F   21352.51531602 -.00000591  00000-0 -20720-4 0  9993","CLASSIFICATION_TYPE":"U","OBJECT_TYPE":"PAYLOAD","SEMIMAJOR_AXIS":"6925.349","TIME_SYSTEM":"UTC","TLE_LINE2":"2 44718  53.0548 269.7103 0002458  62.3085 297.8153 15.06399781116307","PERIAPSIS":"545.512","REF_FRAME":"TEME","EPOCH":"2021-12-18T12:22:03.304128","REV_AT_EPOCH":"11630","MEAN_MOTION":"15.06399781","CENTER_NAME":"EARTH","SITE":"AFETR","LAUNCH_DATE":"2019-11-11","ELEMENT_SET_NO":"999","RCS_SIZE":"LARGE","GP_ID":"191940820","ARG_OF_PERICENTER":"62.3085","PERIOD":"95.592","MEAN_ELEMENT_THEORY":"SGP4","ECCENTRICITY":"0.00024580","APOAPSIS":"548.916","EPHEMERIS_TYPE":"0","MEAN_MOTION_DOT":"-0.00000591","INCLINATION":"53.0548","DECAY_DATE":null,"COUNTRY_CODE":"US","MEAN_MOTION_DDOT":"0.0000000000000"},{"GP_ID":"191948972","ELEMENT_SET_NO":"999","RCS_SIZE":"LARGE","LAUNCH_DATE":"2019-11-11","SITE":"AFETR","CENTER_NAME":"EARTH","MEAN_MOTION":"15.06407909","REF_FRAME":"TEME","EPOCH":"2021-12-18T18:54:49.033728","REV_AT_EPOCH":"11651","PERIAPSIS":"545.781","TLE_LINE2":"2 44719  53.0556 268.4785 0002034  64.9325 295.1874 15.06407909116510","TIME_SYSTEM":"UTC","OBJECT_TYPE":"PAYLOAD","SEMIMAJOR_AXIS":"6925.324","CLASSIFICATION_TYPE":"U","TLE_LINE1":"1 44719U 19074G   21352.78806752  .00001032  00000-0  88135-4 0  9997","OBJECT_NAME":"STARLINK-1013","MEAN_ANOMALY":"295.1874","RA_OF_ASC_NODE":"268.4785","NORAD_CAT_ID":"44719","FILE":"3243874","BSTAR":"0.00008813500000","OBJECT_ID":"2019-074G","MEAN_MOTION_DDOT":"0.0000000000000","COUNTRY_CODE":"US","DECAY_DATE":null,"INCLINATION":"53.0556","MEAN_MOTION_DOT":"0.00001032","EPHEMERIS_TYPE":"0","APOAPSIS":"548.598","ECCENTRICITY":"0.00020340","MEAN_ELEMENT_THEORY":"SGP4","PERIOD":"95.592","ARG_OF_PERICENTER":"64.9325"},{"CENTER_NAME":"EARTH","MEAN_MOTION":"15.06403766","REF_FRAME":"TEME","EPOCH":"2021-12-18T11:23:39.727968","REV_AT_EPOCH":"11630","SITE":"AFETR","ELEMENT_SET_NO":"999","RCS_SIZE":"LARGE","LAUNCH_DATE":"2019-11-11","GP_ID":"191939319","FILE":"3243681","BSTAR":"0.00009193200000","OBJECT_ID":"2019-074H","MEAN_ANOMALY":"296.6244","RA_OF_ASC_NODE":"269.8912","NORAD_CAT_ID":"44720","TLE_LINE1":"1 44720U 19074H   21352.47476537  .00001088  00000-0  91932-4 0  9999","OBJECT_NAME":"STARLINK-1014","PERIAPSIS":"545.595","TLE_LINE2":"2 44720  53.0540 269.8912 0002321  63.4983 296.6244 15.06403766116306","TIME_SYSTEM":"UTC","SEMIMAJOR_AXIS":"6925.337","OBJECT_TYPE":"PAYLOAD","CLASSIFICATION_TYPE":"U","INCLINATION":"53.0540","DECAY_DATE":null,"MEAN_MOTION_DDOT":"0.0000000000000","COUNTRY_CODE":"US","MEAN_ELEMENT_THEORY":"SGP4","PERIOD":"95.592","ARG_OF_PERICENTER":"63.4983","ECCENTRICITY":"0.00023210","MEAN_MOTION_DOT":"0.00001088","EPHEMERIS_TYPE":"0","APOAPSIS":"548.809"},{"ECCENTRICITY":"0.00022920","ARG_OF_PERICENTER":"62.6552","PERIOD":"95.593","MEAN_ELEMENT_THEORY":"SGP4","APOAPSIS":"548.840","EPHEMERIS_TYPE":"0","MEAN_MOTION_DOT":"-0.00001765","DECAY_DATE":null,"INCLINATION":"53.0540","COUNTRY_CODE":"US","MEAN_MOTION_DDOT":"0.0000000000000","RA_OF_ASC_NODE":"270.8209","NORAD_CAT_ID":"44721","MEAN_ANOMALY":"297.4670","FILE":"3243681","BSTAR":"-0.00009963300000","OBJECT_ID":"2019-074J","CLASSIFICATION_TYPE":"U","OBJECT_TYPE":"PAYLOAD","SEMIMAJOR_AXIS":"6925.387","TIME_SYSTEM":"UTC","PERIAPSIS":"545.665","TLE_LINE2":"2 44721  53.0540 270.8209 0002292  62.6552 297.4670 15.06387355116260","OBJECT_NAME":"STARLINK-1015","TLE_LINE1":"1 44721U 19074J   21352.26468579 -.00001765  00000-0 -99633-4 0  9994","SITE":"AFETR","REV_AT_EPOCH":"11626","EPOCH":"2021-12-18T06:21:08.852256","REF_FRAME":"TEME","MEAN_MOTION":"15.06387355","CENTER_NAME":"EARTH","GP_ID":"191939569","LAUNCH_DATE":"2019-11-11","RCS_SIZE":"LARGE","ELEMENT_SET_NO":"999"},{"APOAPSIS":"549.221","EPHEMERIS_TYPE":"0","MEAN_MOTION_DOT":"0.00000516","ECCENTRICITY":"0.00028810","ARG_OF_PERICENTER":"57.8353","PERIOD":"95.592","MEAN_ELEMENT_THEORY":"SGP4","COUNTRY_CODE":"US","MEAN_MOTION_DDOT":"0.0000000000000","DECAY_DATE":null,"INCLINATION":"53.0551","SEMIMAJOR_AXIS":"6925.361","OBJECT_TYPE":"PAYLOAD","CLASSIFICATION_TYPE":"U","TIME_SYSTEM":"UTC","TLE_LINE2":"2 44722  53.0551 269.9229 0002881  57.8353 302.2915 15.06395950116305","PERIAPSIS":"545.231","OBJECT_NAME":"STARLINK-1016","TLE_LINE1":"1 44722U 19074K   21352.46739701  .00000516  00000-0  53605-4 0  9995","NORAD_CAT_ID":"44722","RA_OF_ASC_NODE":"269.9229","MEAN_ANOMALY":"302.2915","BSTAR":"0.00005360500000","FILE":"3243681","OBJECT_ID":"2019-074K","GP_ID":"191940321","LAUNCH_DATE":"2019-11-11","ELEMENT_SET_NO":"999","RCS_SIZE":"LARGE","SITE":"AFETR","EPOCH":"2021-12-18T11:13:03.101664","REV_AT_EPOCH":"11630","REF_FRAME":"TEME","MEAN_MOTION":"15.06395950","CENTER_NAME":"EARTH"},{"DECAY_DATE":null,"INCLINATION":"53.0562","MEAN_MOTION_DDOT":"0.0000000000000","COUNTRY_CODE":"US","ECCENTRICITY":"0.00023500","MEAN_ELEMENT_THEORY":"SGP4","PERIOD":"95.592","ARG_OF_PERICENTER":"67.5698","MEAN_MOTION_DOT":"0.00000506","EPHEMERIS_TYPE":"0","APOAPSIS":"548.854","SITE":"AFETR","CENTER_NAME":"EARTH","MEAN_MOTION":"15.06395859","EPOCH":"2021-12-18T11:34:17.108544","REV_AT_EPOCH":"11647","REF_FRAME":"TEME","GP_ID":"191946687","RCS_SIZE":"LARGE","ELEMENT_SET_NO":"999","LAUNCH_DATE":"2019-11-11","MEAN_ANOMALY":"292.5540","RA_OF_ASC_NODE":"269.8675","NORAD_CAT_ID":"44723","FILE":"3243777","OBJECT_ID":"2019-074L","BSTAR":"0.00005290500000","PERIAPSIS":"545.599","TLE_LINE2":"2 44723  53.0562 269.8675 0002350  67.5698 292.5540 15.06395859116474","TIME_SYSTEM":"UTC","OBJECT_TYPE":"PAYLOAD","SEMIMAJOR_AXIS":"6925.361","CLASSIFICATION_TYPE":"U","OBJECT_NAME":"STARLINK-1017","TLE_LINE1":"1 44723U 19074L   21352.48214246  .00000506  00000-0  52905-4 0  9991"},{"OBJECT_ID":"2019-074M","FILE":"3243681","BSTAR":"0.00009877100000","NORAD_CAT_ID":"44724","RA_OF_ASC_NODE":"269.7283","MEAN_ANOMALY":"292.1159","TLE_LINE1":"1 44724U 19074M   21352.51163019  .00001190  00000-0  98771-4 0  9998","OBJECT_NAME":"STARLINK-1019","OBJECT_TYPE":"PAYLOAD","CLASSIFICATION_TYPE":"U","SEMIMAJOR_AXIS":"6925.355","TIME_SYSTEM":"UTC","PERIAPSIS":"545.737","TLE_LINE2":"2 44724  53.0544 269.7283 0002142  68.0057 292.1159 15.06397867116308","EPOCH":"2021-12-18T12:16:44.848416","REF_FRAME":"TEME","REV_AT_EPOCH":"11630","MEAN_MOTION":"15.06397867","CENTER_NAME":"EARTH","SITE":"AFETR","LAUNCH_DATE":"2019-11-11","RCS_SIZE":"LARGE","ELEMENT_SET_NO":"999","GP_ID":"191939819","ARG_OF_PERICENTER":"68.0057","PERIOD":"95.592","MEAN_ELEMENT_THEORY":"SGP4","ECCENTRICITY":"0.00021420","APOAPSIS":"548.704","EPHEMERIS_TYPE":"0","MEAN_MOTION_DOT":"0.00001190","INCLINATION":"53.0544","DECAY_DATE":null,"COUNTRY_CODE":"US","MEAN_MOTION_DDOT":"0.0000000000000"},{"MEAN_ANOMALY":"287.4903","RA_OF_ASC_NODE":"288.2046","NORAD_CAT_ID":"44725","FILE":"3243779","OBJECT_ID":"2019-074N","BSTAR":"0.00041403000000","TIME_SYSTEM":"UTC","TLE_LINE2":"2 44725  53.0548 288.2046 0002204  72.6327 287.4903 15.06374949116249","PERIAPSIS":"545.764","CLASSIFICATION_TYPE":"U","OBJECT_TYPE":"PAYLOAD","SEMIMAJOR_AXIS":"6925.425","TLE_LINE1":"1 44725U 19074N   21352.84888836  .00005887  00000-0  41403-3 0  9992","OBJECT_NAME":"STARLINK-1020","SITE":"AFETR","CENTER_NAME":"EARTH","REV_AT_EPOCH":"11624","EPOCH":"2021-12-18T20:22:23.954304","REF_FRAME":"TEME","MEAN_MOTION":"15.06374949","GP_ID":"191946738","LAUNCH_DATE":"2019-11-11","RCS_SIZE":"LARGE","ELEMENT_SET_NO":"999","ECCENTRICITY":"0.00022040","PERIOD":"95.594","MEAN_ELEMENT_THEORY":"SGP4","ARG_OF_PERICENTER":"72.6327","EPHEMERIS_TYPE":"0","MEAN_MOTION_DOT":"0.00005887","APOAPSIS":"548.817","DECAY_DATE":null,"INCLINATION":"53.0548","MEAN_MOTION_DDOT":"0.0000000000000","COUNTRY_CODE":"US"},{"SEMIMAJOR_AXIS":"6925.363","OBJECT_TYPE":"PAYLOAD","CLASSIFICATION_TYPE":"U","TLE_LINE2":"2 44726  53.0547 269.7535 0002105  70.8277 289.2940 15.06395340116306","PERIAPSIS":"545.770","TIME_SYSTEM":"UTC","OBJECT_NAME":"STARLINK-1021","TLE_LINE1":"1 44726U 19074P   21352.50794488 -.00000833  00000-0 -37033-4 0  9998","RA_OF_ASC_NODE":"269.7535","NORAD_CAT_ID":"44726","MEAN_ANOMALY":"289.2940","FILE":"3243681","BSTAR":"-0.00003703300000","OBJECT_ID":"2019-074P","GP_ID":"191940821","ELEMENT_SET_NO":"999","RCS_SIZE":"LARGE","LAUNCH_DATE":"2019-11-11","SITE":"AFETR","MEAN_MOTION":"15.06395340","EPOCH":"2021-12-18T12:11:26.437632","REF_FRAME":"TEME","REV_AT_EPOCH":"11630","CENTER_NAME":"EARTH","APOAPSIS":"548.686","MEAN_MOTION_DOT":"-0.00000833","EPHEMERIS_TYPE":"0","ECCENTRICITY":"0.00021050","ARG_OF_PERICENTER":"70.8277","MEAN_ELEMENT_THEORY":"SGP4","PERIOD":"95.592","COUNTRY_CODE":"US","MEAN_MOTION_DDOT":"0.0000000000000","DECAY_DATE":null,"INCLINATION":"53.0547"},{"COUNTRY_CODE":"US","MEAN_MOTION_DDOT":"0.0000000000000","DECAY_DATE":null,"INCLINATION":"53.0611","APOAPSIS":"548.666","MEAN_MOTION_DOT":"-0.00000852","EPHEMERIS_TYPE":"0","ECCENTRICITY":"0.00021250","ARG_OF_PERICENTER":"58.7073","MEAN_ELEMENT_THEORY":"SGP4","PERIOD":"95.592","GP_ID":"191946620","ELEMENT_SET_NO":"999","RCS_SIZE":"LARGE","LAUNCH_DATE":"2019-11-11","SITE":"AFETR","MEAN_MOTION":"15.06406331","REV_AT_EPOCH":"11596","EPOCH":"2021-12-18T17:49:46.658496","REF_FRAME":"TEME","CENTER_NAME":"EARTH","SEMIMAJOR_AXIS":"6925.329","OBJECT_TYPE":"PAYLOAD","CLASSIFICATION_TYPE":"U","PERIAPSIS":"545.723","TLE_LINE2":"2 44727  53.0611 308.6626 0002125  58.7073 301.4124 15.06406331115969","TIME_SYSTEM":"UTC","TLE_LINE1":"1 44727U 19074Q   21352.74290114 -.00000852  00000-0 -38285-4 0  9993","OBJECT_NAME":"STARLINK-1022","RA_OF_ASC_NODE":"308.6626","NORAD_CAT_ID":"44727","MEAN_ANOMALY":"301.4124","FILE":"3243773","BSTAR":"-0.00003828500000","OBJECT_ID":"2019-074Q"}];
